NORAD_CAT_ID,OBJECT_NAME,OBJECT_TYPE,EPOCH,MEAN_MOTION,ECCENTRICITY,INCLINATION,RA_OF_ASC_NODE,ARG_OF_PERICENTER,MEAN_ANOMALY,BSTAR,MEAN_MOTION_DOT,MEAN_MOTION_DDOT,TLE_LINE0,TLE_LINE1,TLE_LINE2,SEMIMAJOR_AXIS,PERIOD,APOGEE,PERIGEE,DECAYED
53174.0,STARLINK-4205,PAYLOAD,2023-08-04 01:39:21,15.08842271,0.00011,53.2169,112.6474,102.0518,258.0597,3.0253e-05,1.94e-06,0.0,0 STARLINK-4205,1 53174U 22083AU  23216.06900287  .00000194  00000-0  30253-4 0  9992,2 53174  53.2169 112.6474 0001100 102.0518 258.0597 15.08842271 58649,6917.873,95.437,540.499,538.977,0.0
53174.0,STARLINK-4205,PAYLOAD,2023-08-06 01:20:55,15.08857731,0.0001052,53.2166,103.7274,97.8336,262.2775,0.00052092,8.016e-05,0.0,0 STARLINK-4205,1 53174U 22083AU  23218.05619972  .00008016  00000-0  52092-3 0  9996,2 53174  53.2166 103.7274 0001052  97.8336 262.2775 15.08857731 58945,6917.826,95.436,540.419,538.963,0.0
53174.0,STARLINK-4205,PAYLOAD,2023-08-06 09:17:51,15.08841939,0.0001355,53.2168,102.2401,89.4812,270.6335,9.4818e-06,-1.37e-06,0.0,0 STARLINK-4205,1 53174U 22083AU  23218.38740264 -.00000137  00000-0  94818-5 0  9992,2 53174  53.2168 102.2401 0001355  89.4812 270.6335 15.08841939 58998,6917.874,95.437,540.677,538.802,0.0
53174.0,STARLINK-4205,PAYLOAD,2023-08-06 23:36:20,15.08822762,0.0001023,53.2164,99.5662,84.6739,275.437,-0.00025393,-4.325e-05,0.0,0 STARLINK-4205,1 53174U 22083AU  23218.98357401 -.00004325  00000-0 -25393-3 0  9999,2 53174  53.2164  99.5662 0001023  84.6739 275.4370 15.08822762 59084,6917.933,95.439,540.506,539.09,0.0
53174.0,STARLINK-4205,PAYLOAD,2023-08-07 18:40:58,15.08842528,9.41e-05,53.2157,95.9962,78.9493,281.1605,0.00078637,0.0001225,0.0,0 STARLINK-4205,1 53174U 22083AU  23219.77845748  .00012250  00000-0  78637-3 0  9996,2 53174  53.2157  95.9962 0000941  78.9493 281.1605 15.08842528 59201,6917.873,95.437,540.389,539.087,0.0
53174.0,STARLINK-4205,PAYLOAD,2023-08-09 00:53:17,15.08869871,9.66e-05,53.2158,90.3462,74.7218,285.3881,0.00079012,0.00012319,0.0,0 STARLINK-4205,1 53174U 22083AU  23221.03700452  .00012319  00000-0  79012-3 0  9994,2 53174  53.2158  90.3462 0000966  74.7218 285.3881 15.08869871 59394,6917.789,95.436,540.322,538.986,0.0
53174.0,STARLINK-4205,PAYLOAD,2023-08-09 08:50:12,15.08856615,0.0001718,53.2159,88.8591,77.3356,282.7828,0.00024412,3.601e-05,0.0,0 STARLINK-4205,1 53174U 22083AU  23221.36820520  .00003601  00000-0  24412-3 0  9997,2 53174  53.2159  88.8591 0001718  77.3356 282.7828 15.08856615 59448,6917.83,95.437,540.883,538.506,0.0
53174.0,STARLINK-4205,PAYLOAD,2023-08-10 00:44:04,15.08844709,0.0001193,53.2166,85.8849,104.4231,255.6893,0.000192,2.77e-05,0.0,0 STARLINK-4205,1 53174U 22083AU  23222.03060542  .00002770  00000-0  19200-3 0  9997,2 53174  53.2166  85.8849 0001193 104.4231 255.6893 15.08844709 59543,6917.866,95.437,540.556,538.906,0.0
53174.0,STARLINK-4205,PAYLOAD,2023-08-10 15:02:32,15.08841688,0.000111,53.2157,83.208,102.7992,257.3125,0.00019823,2.869e-05,0.0,0 STARLINK-4205,1 53174U 22083AU  23222.62676725  .00002869  00000-0  19823-3 0  9998,2 53174  53.2157  83.2080 0001110 102.7992 257.3125 15.08841688 59636,6917.875,95.437,540.508,538.972,0.0
53174.0,STARLINK-4205,PAYLOAD,2023-08-11 18:04:06,15.08837224,0.0001109,53.2159,78.1545,94.7949,265.317,8.2195e-05,1.02e-05,0.0,0 STARLINK-4205,1 53174U 22083AU  23223.75285060  .00001020  00000-0  82195-4 0  9992,2 53174  53.2159  78.1545 0001109  94.7949 265.3170 15.08837224 59806,6917.889,95.438,540.521,538.987,0.0
53174.0,STARLINK-4205,PAYLOAD,2023-08-12 14:44:09,15.08793209,0.000138,53.2174,74.2876,93.5357,266.5793,0.0014232,0.00022406,0.0,0 STARLINK-4205,1 53174U 22083AU  23224.61399405  .00022406  00000-0  14232-2 0  9993,2 53174  53.2174  74.2876 0001380  93.5357 266.5793 15.08793209 59930,6918.023,95.441,540.843,538.934,0.0
53174.0,STARLINK-4205,PAYLOAD,2023-08-13 00:16:26,15.08830163,0.0001284,53.2175,72.5051,89.3716,270.7423,0.00080503,0.00012544,0.0,0 STARLINK-4205,1 53174U 22083AU  23225.01141944  .00012544  00000-0  80503-3 0  9998,2 53174  53.2175  72.5051 0001284  89.3716 270.7423 15.08830163 59996,6917.91,95.438,540.664,538.887,0.0
53174.0,STARLINK-4205,PAYLOAD,2023-08-14 00:07:13,15.08840413,0.0001013,53.2166,68.044,76.0158,284.0947,7.6645e-05,9.32e-06,0.0,0 STARLINK-4205,1 53174U 22083AU  23226.00501284  .00000932  00000-0  76645-4 0  9996,2 53174  53.2166  68.0440 0001013  76.0158 284.0947 15.08840413 60148,6917.879,95.438,540.445,539.043,0.0
53174.0,STARLINK-4205,PAYLOAD,2023-08-15 19:02:37,15.08840223,9.69e-05,53.2164,60.0144,83.5044,276.6058,8.6982e-05,1.097e-05,0.0,0 STARLINK-4205,1 53174U 22083AU  23227.79349490  .00001097  00000-0  86982-4 0  9990,2 53174  53.2164  60.0144 0000969  83.5044 276.6058 15.08840223 60414,6917.88,95.438,540.415,539.074,0.0
53174.0,STARLINK-4205,PAYLOAD,2023-08-16 06:10:20,15.08833147,0.0001177,53.2152,57.9328,83.3546,276.758,0.0002224,3.253e-05,0.0,0 STARLINK-4205,1 53174U 22083AU  23228.25718029  .00003253  00000-0  22240-3 0  9992,2 53174  53.2152  57.9328 0001177  83.3546 276.7580 15.08833147 60482,6917.901,95.438,540.581,538.952,0.0
53174.0,STARLINK-4205,PAYLOAD,2023-08-17 12:22:39,15.08843486,0.0001281,53.216,52.2837,78.3647,281.7489,0.00010853,1.44e-05,0.0,0 STARLINK-4205,1 53174U 22083AU  23229.51573439  .00001440  00000-0  10853-3 0  9999,2 53174  53.2160  52.2837 0001281  78.3647 281.7489 15.08843486 60678,6917.87,95.437,540.621,538.849,0.0
53174.0,STARLINK-4205,PAYLOAD,2023-08-18 18:34:59,15.08839206,0.0001134,53.2153,46.632,89.269,270.8432,4.4596e-05,4.22e-06,0.0,0 STARLINK-4205,1 53174U 22083AU  23230.77429728  .00000422  00000-0  44596-4 0  9991,2 53174  53.2153  46.6320 0001134  89.2690 270.8432 15.08839206 60863,6917.883,95.438,540.532,538.963,0.0
53174.0,STARLINK-4205,PAYLOAD,2023-08-19 12:04:16,15.08798266,0.0001211,53.2161,43.3626,343.0955,16.9997,-0.00029206,-4.928e-05,0.0,0 STARLINK-4205,1 53174U 22083AU  23231.50297076 -.00004928  00000-0 -29206-3 0  9999,2 53174  53.2161  43.3626 0001211 343.0955  16.9997 15.08798266 60973,6918.008,95.44,540.711,539.035,0.0
53174.0,STARLINK-4205,PAYLOAD,2023-08-20 10:19:37,15.08838041,0.0001113,53.2172,39.1985,98.1608,261.951,7.4025e-05,8.9e-06,0.0,0 STARLINK-4205,1 53174U 22083AU  23232.43029960  .00000890  00000-0  74025-4 0  9999,2 53174  53.2172  39.1985 0001113  98.1608 261.9510 15.08838041 61116,6917.886,95.438,540.521,538.981,0.0
53174.0,STARLINK-4205,PAYLOAD,2023-08-20 18:16:33,15.08844778,0.0001019,53.2178,37.7123,93.1842,266.9267,0.00013409,1.847e-05,0.0,0 STARLINK-4205,1 53174U 22083AU  23232.76149457  .00001847  00000-0  13409-3 0  9990,2 53174  53.2178  37.7123 0001019  93.1842 266.9267 15.08844778 61163,6917.866,95.437,540.436,539.026,0.0
53174.0,STARLINK-4205,PAYLOAD,2023-08-21 11:45:48,15.08834981,0.0001294,53.2215,34.4436,97.5179,262.596,4.1749e-05,3.77e-06,0.0,0 STARLINK-4205,1 53174U 22083AU  23233.49014490  .00000377  00000-0  41749-4 0  9995,2 53174  53.2215  34.4436 0001294  97.5179 262.5960 15.08834981 61271,6917.896,95.438,540.656,538.866,0.0
53174.0,STARLINK-4205,PAYLOAD,2023-08-23 09:51:59,15.08840112,0.0001178,53.2202,25.8195,85.106,275.0067,0.00014608,2.038e-05,0.0,0 STARLINK-4205,1 53174U 22083AU  23235.41110238  .00002038  00000-0  14608-3 0  9995,2 53174  53.2202  25.8195 0001178  85.1060 275.0067 15.08840112 61568,6917.88,95.438,540.56,538.93,0.0
53174.0,STARLINK-4205,PAYLOAD,2023-08-24 09:42:46,15.08843755,7.85e-05,53.2171,21.3575,51.3714,308.7348,7.3541e-05,8.83e-06,0.0,0 STARLINK-4205,1 53174U 22083AU  23236.40470223  .00000883  00000-0  73541-4 0  9996,2 53174  53.2171  21.3575 0000785  51.3714 308.7348 15.08843755 61078,6917.869,95.437,540.277,539.191,0.0
53174.0,STARLINK-4205,PAYLOAD,2023-08-25 12:44:19,15.08874596,0.0001157,53.218,16.3058,67.9872,292.1243,-0.0004629,-7.654e-05,0.0,0 STARLINK-4205,1 53174U 22083AU  23237.53077695 -.00007654  00000-0 -46290-3 0  9992,2 53174  53.2180  16.3058 0001157  67.9872 292.1243 15.08874596 61246,6917.775,95.435,540.44,538.839,0.0
53174.0,STARLINK-4205,PAYLOAD,2023-08-25 19:05:51,15.08847333,0.0001228,53.2176,15.1135,80.6726,279.4405,2.2752e-05,7.4e-07,0.0,0 STARLINK-4205,1 53174U 22083AU  23237.79573864  .00000074  00000-0  22752-4 0  9994,2 53174  53.2176  15.1135 0001228  80.6726 279.4405 15.08847333 61925,6917.858,95.437,540.572,538.873,0.0
53174.0,STARLINK-4205,PAYLOAD,2023-08-26 09:24:20,15.08832781,0.0001228,53.2176,12.436,99.0453,261.0678,2.3943e-05,9.3e-07,0.0,0 STARLINK-4205,1 53174U 22083AU  23238.39190717  .00000093  00000-0  23943-4 0  9997,2 53174  53.2176  12.4360 0001228  99.0453 261.0678 15.08832781 62017,6917.902,95.438,540.617,538.918,0.0
53174.0,STARLINK-4205,PAYLOAD,2023-08-26 12:35:06,15.08833821,0.0001226,53.2175,11.8413,103.1239,256.989,3.2633e-05,2.31e-06,0.0,0 STARLINK-4205,1 53174U 22083AU  23238.52438628  .00000231  00000-0  32633-4 0  9998,2 53174  53.2175  11.8413 0001226 103.1239 256.9890 15.08833821 61390,6917.899,95.438,540.612,538.916,0.0
53174.0,STARLINK-4205,PAYLOAD,2023-08-26 15:45:52,15.08837872,0.0001309,53.2179,11.2448,113.8224,246.2906,6.7574e-05,7.88e-06,0.0,0 STARLINK-4205,1 53174U 22083AU  23238.65686291  .00000788  00000-0  67574-4 0  9992,2 53174  53.2179  11.2448 0001309 113.8224 246.2906 15.08837872 61413,6917.887,95.438,540.657,538.846,0.0
53174.0,STARLINK-4205,PAYLOAD,2023-08-27 09:15:07,15.08847411,0.0001273,53.2176,7.9741,114.6108,245.5017,-7.8731e-05,-1.541e-05,0.0,0 STARLINK-4205,1 53174U 22083AU  23239.38550397 -.00001541  00000-0 -78731-4 0  9997,2 53174  53.2176   7.9741 0001273 114.6108 245.5017 15.08847411 61525,6917.858,95.437,540.603,538.842,0.0
53174.0,STARLINK-4205,PAYLOAD,2023-08-27 15:36:39,15.08845493,0.0001262,53.2178,6.7851,111.3322,248.7805,5.1447e-05,5.31e-06,0.0,0 STARLINK-4205,1 53174U 22083AU  23239.65045983  .00000531  00000-0  51447-4 0  9998,2 53174  53.2178   6.7851 0001262 111.3322 248.7805 15.08845493 61568,6917.864,95.437,540.602,538.856,0.0
